{
  "type": "FeatureCollection",
  "features": [
    {
      "type": "Feature",
      "properties": {
        "norad_id": 29922,
        "name": "FENGYUN 1C DEB",
        "group": "fengyun-1c-debris",
        "lat": -75.1445270873996,
        "lon": 77.27021077884521,
        "alt_km": 913.799979315746,
        "timestamp": "2025-12-08T10:52:03.219897+00:00",
        "meta_object_name": "FENGYUN 1C DEB",
        "meta_object_id": "1999-025HU",
        "meta_epoch": "2025-12-07T16:21:04.583520",
        "meta_mean_motion": 13.9857792,
        "meta_eccentricity": 0.00936014,
        "meta_inclination": 99.1365,
        "meta_ra_of_asc_node": 39.1498,
        "meta_arg_of_pericenter": 21.0054,
        "meta_mean_anomaly": 339.4915,
        "meta_ephemeris_type": 0,
        "meta_classification_type": "U",
        "meta_norad_cat_id": 29922,
        "meta_element_set_no": 999,
        "meta_rev_at_epoch": 96370,
        "meta_bstar": 0.00029873864,
        "meta_mean_motion_dot": 4e-06,
        "meta_mean_motion_ddot": 0,
        "tle_line1": "1 29922U 99025HU  25341.68130305  .00000400  00000+0  29874-3 0  9996",
        "tle_line2": "2 29922  99.1365  39.1498 0093601  21.0054 339.4915 13.98577920963704"
      },
      "geometry": {
        "type": "Point",
        "coordinates": [
          77.27021077884521,
          -75.1445270873996
        ]
      }
    },
    {
      "type": "Feature",
      "properties": {
        "norad_id": 29923,
        "name": "FENGYUN 1C DEB",
        "group": "fengyun-1c-debris",
        "lat": -66.96070811217234,
        "lon": 149.79313962587196,
        "alt_km": 848.4223005236454,
        "timestamp": "2025-12-08T10:52:03.219907+00:00",
        "meta_object_name": "FENGYUN 1C DEB",
        "meta_object_id": "1999-025HV",
        "meta_epoch": "2025-12-07T23:39:32.128992",
        "meta_mean_motion": 14.138795,
        "meta_eccentricity": 0.00174248,
        "meta_inclination": 98.6883,
        "meta_ra_of_asc_node": 350.4116,
        "meta_arg_of_pericenter": 182.7623,
        "meta_mean_anomaly": 209.77,
        "meta_ephemeris_type": 0,
        "meta_classification_type": "U",
        "meta_norad_cat_id": 29923,
        "meta_element_set_no": 999,
        "meta_rev_at_epoch": 97208,
        "meta_bstar": 0.00069008913,
        "meta_mean_motion_dot": 1.267e-05,
        "meta_mean_motion_ddot": 0,
        "tle_line1": "1 29923U 99025HV  25341.98578853  .00001267  00000+0  69009-3 0  9990",
        "tle_line2": "2 29923  98.6883 350.4116 0017424 182.7623 209.7700 14.13879500972085"
      },
      "geometry": {
        "type": "Point",
        "coordinates": [
          149.79313962587196,
          -66.96070811217234
        ]
      }
    },
    {
      "type": "Feature",
      "properties": {
        "norad_id": 29924,
        "name": "FENGYUN 1C DEB",
        "group": "fengyun-1c-debris",
        "lat": -59.19426100691618,
        "lon": 10.484823038836206,
        "alt_km": 853.935023355757,
        "timestamp": "2025-12-08T10:52:03.219917+00:00",
        "meta_object_name": "FENGYUN 1C DEB",
        "meta_object_id": "1999-025HW",
        "meta_epoch": "2025-12-07T23:30:04.853376",
        "meta_mean_motion": 14.08887992,
        "meta_eccentricity": 0.00258634,
        "meta_inclination": 98.7345,
        "meta_ra_of_asc_node": 355.0844,
        "meta_arg_of_pericenter": 271.654,
        "meta_mean_anomaly": 147.2013,
        "meta_ephemeris_type": 0,
        "meta_classification_type": "U",
        "meta_norad_cat_id": 29924,
        "meta_element_set_no": 999,
        "meta_rev_at_epoch": 97141,
        "meta_bstar": 0.00017866489,
        "meta_mean_motion_dot": 2.67e-06,
        "meta_mean_motion_ddot": 0,
        "tle_line1": "1 29924U 99025HW  25341.97922284  .00000267  00000+0  17866-3 0  9994",
        "tle_line2": "2 29924  98.7345 355.0844 0025863 271.6540 147.2013 14.08887992971418"
      },
      "geometry": {
        "type": "Point",
        "coordinates": [
          10.484823038836206,
          -59.19426100691618
        ]
      }
    },
    {
      "type": "Feature",
      "properties": {
        "norad_id": 29926,
        "name": "FENGYUN 1C DEB",
        "group": "fengyun-1c-debris",
        "lat": 30.150841148726993,
        "lon": 156.3876266786104,
        "alt_km": 949.348833116087,
        "timestamp": "2025-12-08T10:52:03.219927+00:00",
        "meta_object_name": "FENGYUN 1C DEB",
        "meta_object_id": "1999-025HY",
        "meta_epoch": "2025-12-07T22:40:57.610272",
        "meta_mean_motion": 14.33368946,
        "meta_eccentricity": 0.02485835,
        "meta_inclination": 98.2836,
        "meta_ra_of_asc_node": 331.0468,
        "meta_arg_of_pericenter": 314.5942,
        "meta_mean_anomaly": 97.3184,
        "meta_ephemeris_type": 0,
        "meta_classification_type": "U",
        "meta_norad_cat_id": 29926,
        "meta_element_set_no": 999,
        "meta_rev_at_epoch": 98512,
        "meta_bstar": 0.00063055328,
        "meta_mean_motion_dot": 2.404e-05,
        "meta_mean_motion_ddot": 0,
        "tle_line1": "1 29926U 99025HY  25341.94511123  .00002404  00000+0  63055-3 0  9995",
        "tle_line2": "2 29926  98.2836 331.0468 0248583 314.5942  97.3184 14.33368946985123"
      },
      "geometry": {
        "type": "Point",
        "coordinates": [
          156.3876266786104,
          30.150841148726993
        ]
      }
    },
    {
      "type": "Feature",
      "properties": {
        "norad_id": 29927,
        "name": "FENGYUN 1C DEB",
        "group": "fengyun-1c-debris",
        "lat": 5.71464799742796,
        "lon": 4.969653245840997,
        "alt_km": 659.2516823295455,
        "timestamp": "2025-12-08T10:52:03.219938+00:00",
        "meta_object_name": "FENGYUN 1C DEB",
        "meta_object_id": "1999-025HZ",
        "meta_epoch": "2025-12-07T12:44:21.451776",
        "meta_mean_motion": 14.74266959,
        "meta_eccentricity": 0.0017647,
        "meta_inclination": 99.0838,
        "meta_ra_of_asc_node": 4.8546,
        "meta_arg_of_pericenter": 226.8568,
        "meta_mean_anomaly": 288.2532,
        "meta_ephemeris_type": 0,
        "meta_classification_type": "U",
        "meta_norad_cat_id": 29927,
        "meta_element_set_no": 999,
        "meta_rev_at_epoch": 98570,
        "meta_bstar": 0.0044873373,
        "meta_mean_motion_dot": 0.00029814,
        "meta_mean_motion_ddot": 0,
        "tle_line1": "1 29927U 99025HZ  25341.53080384  .00029814  00000+0  44873-2 0  9991",
        "tle_line2": "2 29927  99.0838   4.8546 0017647 226.8568 288.2532 14.74266959985709"
      },
      "geometry": {
        "type": "Point",
        "coordinates": [
          4.969653245840997,
          5.71464799742796
        ]
      }
    },
    {
      "type": "Feature",
      "properties": {
        "norad_id": 29928,
        "name": "FENGYUN 1C DEB",
        "group": "fengyun-1c-debris",
        "lat": 5.569505604750131,
        "lon": 5.661028601135761,
        "alt_km": 969.7411687645435,
        "timestamp": "2025-12-08T10:52:03.219948+00:00",
        "meta_object_name": "FENGYUN 1C DEB",
        "meta_object_id": "1999-025JA",
        "meta_epoch": "2025-12-07T20:08:37.004352",
        "meta_mean_motion": 13.88073475,
        "meta_eccentricity": 0.01434776,
        "meta_inclination": 99.5847,
        "meta_ra_of_asc_node": 5.9753,
        "meta_arg_of_pericenter": 116.0794,
        "meta_mean_anomaly": 67.1868,
        "meta_ephemeris_type": 0,
        "meta_classification_type": "U",
        "meta_norad_cat_id": 29928,
        "meta_element_set_no": 999,
        "meta_rev_at_epoch": 95423,
        "meta_bstar": 0.00099674291,
        "meta_mean_motion_dot": 1.244e-05,
        "meta_mean_motion_ddot": 0,
        "tle_line1": "1 29928U 99025JA  25341.83931718  .00001244  00000+0  99674-3 0  9998",
        "tle_line2": "2 29928  99.5847   5.9753 0143477 116.0794  67.1868 13.88073475954232"
      },
      "geometry": {
        "type": "Point",
        "coordinates": [
          5.661028601135761,
          5.569505604750131
        ]
      }
    },
    {
      "type": "Feature",
      "properties": {
        "norad_id": 29929,
        "name": "FENGYUN 1C DEB",
        "group": "fengyun-1c-debris",
        "lat": 25.558845997096604,
        "lon": -102.23175430434577,
        "alt_km": 978.8520637763258,
        "timestamp": "2025-12-08T10:52:03.219958+00:00",
        "meta_object_name": "FENGYUN 1C DEB",
        "meta_object_id": "1999-025JB",
        "meta_epoch": "2025-12-07T17:44:51.254304",
        "meta_mean_motion": 14.01339031,
        "meta_eccentricity": 0.01309444,
        "meta_inclination": 98.6239,
        "meta_ra_of_asc_node": 261.256,
        "meta_arg_of_pericenter": 190.3613,
        "meta_mean_anomaly": 199.4259,
        "meta_ephemeris_type": 0,
        "meta_classification_type": "U",
        "meta_norad_cat_id": 29929,
        "meta_element_set_no": 999,
        "meta_rev_at_epoch": 95886,
        "meta_bstar": 0.0016331739,
        "meta_mean_motion_dot": 2.612e-05,
        "meta_mean_motion_ddot": 0,
        "tle_line1": "1 29929U 99025JB  25341.73948211  .00002612  00000+0  16332-2 0  9993",
        "tle_line2": "2 29929  98.6239 261.2560 0130944 190.3613 199.4259 14.01339031958866"
      },
      "geometry": {
        "type": "Point",
        "coordinates": [
          -102.23175430434577,
          25.558845997096604
        ]
      }
    }
  ]
}